ORBCOMM FM33            
1 25983U 99065D   24239.50278492  .00002306  00000+0  79828-3 0  9990
2 25983  45.0293 318.2857 0007363   4.1056 355.9852 14.38205119293613
ORBCOMM FM36            
1 25984U 99065E   24238.93433975  .00003002  00000+0  10686-2 0  9996
2 25984  45.0402  48.2964 0003987 236.9090 123.1376 14.36149509291944
ORBCOMM FM35            
1 25985U 99065F   24238.94328197  .00002189  00000+0  80158-3 0  9994
2 25985  45.0403  51.3057 0002262 357.1304   2.9531 14.35570990292335
ORBCOMM FM34            
1 25986U 99065G   24239.19385372  .00002203  00000+0  80656-3 0  9991
2 25986  45.0398  50.6733 0003204 288.2403  71.8096 14.35562844292489
ORBCOMM FM38            
1 33060U 08031A   24239.46903757  .00003849  00000+0  55107-3 0  9999
2 33060  48.4398 277.0470 0005423 225.4766 134.5706 14.78392647871095
ORBCOMM FM41            
1 33061U 08031B   24239.49396293  .00003502  00000+0  50728-3 0  9994
2 33061  48.4435 283.8081 0004428 212.8315 289.1246 14.78111020870599
ORBCOMM FM29            
1 33062U 08031C   24239.46220332  .00003695  00000+0  53417-3 0  9993
2 33062  48.4392 291.9893 0006240 208.4611 165.4202 14.78069959870509
ORBCOMM FM39            
1 33063U 08031D   24239.56938033  .00003547  00000+0  52700-3 0  9999
2 33063  48.4410 312.8551 0006918 181.4758 178.6137 14.76972868870209
